{
  "type": "FeatureCollection",
  "features": [
    {
      "type": "Feature",
      "properties": {
        "norad_id": 30199,
        "name": "FENGYUN 1C DEB",
        "group": "fengyun-1c-debris",
        "lat": 24.304181602525585,
        "lon": 19.87835958987215,
        "alt_km": 787.4336200751468,
        "timestamp": "2025-12-26T06:43:29.786192+00:00",
        "meta_object_name": "FENGYUN 1C DEB",
        "meta_object_id": "1999-025VG",
        "meta_epoch": "2025-12-25T12:58:01.068096",
        "meta_mean_motion": 14.38586084,
        "meta_eccentricity": 0.007771,
        "meta_inclination": 98.3839,
        "meta_ra_of_asc_node": 22.9744,
        "meta_arg_of_pericenter": 269.8237,
        "meta_mean_anomaly": 244.3242,
        "meta_ephemeris_type": 0,
        "meta_classification_type": "U",
        "meta_norad_cat_id": 30199,
        "meta_element_set_no": 999,
        "meta_rev_at_epoch": 98594,
        "meta_bstar": 0.00092354,
        "meta_mean_motion_dot": 2.884e-05,
        "meta_mean_motion_ddot": 0,
        "tle_line1": "1 30199U 99025VG  25359.54029014  .00002884  00000+0  92354-3 0  9993",
        "tle_line2": "2 30199  98.3839  22.9744 0077710 269.8237 244.3242 14.38586084985944"
      },
      "geometry": {
        "type": "Point",
        "coordinates": [
          19.87835958987215,
          24.304181602525585
        ]
      }
    },
    {
      "type": "Feature",
      "properties": {
        "norad_id": 30200,
        "name": "FENGYUN 1C DEB",
        "group": "fengyun-1c-debris",
        "lat": -72.97101078746738,
        "lon": -132.90430740226032,
        "alt_km": 900.9043852913774,
        "timestamp": "2025-12-26T06:43:29.786202+00:00",
        "meta_object_name": "FENGYUN 1C DEB",
        "meta_object_id": "1999-025VH",
        "meta_epoch": "2025-12-25T12:30:32.970816",
        "meta_mean_motion": 14.22285544,
        "meta_eccentricity": 0.0147491,
        "meta_inclination": 99.1124,
        "meta_ra_of_asc_node": 194.7091,
        "meta_arg_of_pericenter": 62.9547,
        "meta_mean_anomaly": 298.6595,
        "meta_ephemeris_type": 0,
        "meta_classification_type": "U",
        "meta_norad_cat_id": 30200,
        "meta_element_set_no": 999,
        "meta_rev_at_epoch": 98164,
        "meta_bstar": 0.00013693,
        "meta_mean_motion_dot": 2.93e-06,
        "meta_mean_motion_ddot": 0,
        "tle_line1": "1 30200U 99025VH  25359.52121494  .00000293  00000+0  13693-3 0  9990",
        "tle_line2": "2 30200  99.1124 194.7091 0147491  62.9547 298.6595 14.22285544981642"
      },
      "geometry": {
        "type": "Point",
        "coordinates": [
          -132.90430740226032,
          -72.97101078746738
        ]
      }
    },
    {
      "type": "Feature",
      "properties": {
        "norad_id": 30201,
        "name": "FENGYUN 1C DEB",
        "group": "fengyun-1c-debris",
        "lat": -48.29569984720206,
        "lon": -55.31269008811085,
        "alt_km": 807.3046259473713,
        "timestamp": "2025-12-26T06:43:29.786212+00:00",
        "meta_object_name": "FENGYUN 1C DEB",
        "meta_object_id": "1999-025VJ",
        "meta_epoch": "2025-12-25T07:42:38.903040",
        "meta_mean_motion": 14.22966397,
        "meta_eccentricity": 0.0028758,
        "meta_inclination": 99.4017,
        "meta_ra_of_asc_node": 134.3799,
        "meta_arg_of_pericenter": 276.2361,
        "meta_mean_anomaly": 83.5539,
        "meta_ephemeris_type": 0,
        "meta_classification_type": "U",
        "meta_norad_cat_id": 30201,
        "meta_element_set_no": 999,
        "meta_rev_at_epoch": 98006,
        "meta_bstar": 0.00045807,
        "meta_mean_motion_dot": 9.85e-06,
        "meta_mean_motion_ddot": 0,
        "tle_line1": "1 30201U 99025VJ  25359.32128360  .00000985  00000+0  45807-3 0  9998",
        "tle_line2": "2 30201  99.4017 134.3799 0028758 276.2361  83.5539 14.22966397980066"
      },
      "geometry": {
        "type": "Point",
        "coordinates": [
          -55.31269008811085,
          -48.29569984720206
        ]
      }
    },
    {
      "type": "Feature",
      "properties": {
        "norad_id": 30202,
        "name": "FENGYUN 1C DEB",
        "group": "fengyun-1c-debris",
        "lat": -24.581907772332226,
        "lon": -86.02180901192311,
        "alt_km": 749.4714184233562,
        "timestamp": "2025-12-26T06:43:29.786222+00:00",
        "meta_object_name": "FENGYUN 1C DEB",
        "meta_object_id": "1999-025VK",
        "meta_epoch": "2025-12-25T16:33:35.814240",
        "meta_mean_motion": 14.52577418,
        "meta_eccentricity": 0.00380516,
        "meta_inclination": 98.6393,
        "meta_ra_of_asc_node": 97.3589,
        "meta_arg_of_pericenter": 18.3796,
        "meta_mean_anomaly": 341.8763,
        "meta_ephemeris_type": 0,
        "meta_classification_type": "U",
        "meta_norad_cat_id": 30202,
        "meta_element_set_no": 999,
        "meta_rev_at_epoch": 98477,
        "meta_bstar": 0.0021331291,
        "meta_mean_motion_dot": 8.767e-05,
        "meta_mean_motion_ddot": 0,
        "tle_line1": "1 30202U 99025VK  25359.68999785  .00008767  00000+0  21331-2 0  9996",
        "tle_line2": "2 30202  98.6393  97.3589 0038051  18.3796 341.8763 14.52577418984770"
      },
      "geometry": {
        "type": "Point",
        "coordinates": [
          -86.02180901192311,
          -24.581907772332226
        ]
      }
    },
    {
      "type": "Feature",
      "properties": {
        "norad_id": 30205,
        "name": "FENGYUN 1C DEB",
        "group": "fengyun-1c-debris",
        "lat": 0.6305409561503759,
        "lon": 111.02902523740256,
        "alt_km": 1008.3027253050268,
        "timestamp": "2025-12-26T06:43:29.786231+00:00",
        "meta_object_name": "FENGYUN 1C DEB",
        "meta_object_id": "1999-025VN",
        "meta_epoch": "2025-12-25T06:38:29.497056",
        "meta_mean_motion": 13.88051393,
        "meta_eccentricity": 0.0121395,
        "meta_inclination": 98.9966,
        "meta_ra_of_asc_node": 110.1616,
        "meta_arg_of_pericenter": 145.9823,
        "meta_mean_anomaly": 243.9884,
        "meta_ephemeris_type": 0,
        "meta_classification_type": "U",
        "meta_norad_cat_id": 30205,
        "meta_element_set_no": 999,
        "meta_rev_at_epoch": 95812,
        "meta_bstar": 0.0002998,
        "meta_mean_motion_dot": 3.37e-06,
        "meta_mean_motion_ddot": 0,
        "tle_line1": "1 30205U 99025VN  25359.27673029  .00000337  00000+0  29980-3 0  9998",
        "tle_line2": "2 30205  98.9966 110.1616 0121395 145.9823 243.9884 13.88051393958122"
      },
      "geometry": {
        "type": "Point",
        "coordinates": [
          111.02902523740256,
          0.6305409561503759
        ]
      }
    },
    {
      "type": "Feature",
      "properties": {
        "norad_id": 30206,
        "name": "FENGYUN 1C DEB",
        "group": "fengyun-1c-debris",
        "lat": 26.010646131814227,
        "lon": -4.833342656099368,
        "alt_km": 638.9920211731524,
        "timestamp": "2025-12-26T06:43:29.786241+00:00",
        "meta_object_name": "FENGYUN 1C DEB",
        "meta_object_id": "1999-025VP",
        "meta_epoch": "2025-12-25T22:19:19.690464",
        "meta_mean_motion": 14.49210523,
        "meta_eccentricity": 0.01449849,
        "meta_inclination": 98.2324,
        "meta_ra_of_asc_node": 358.8759,
        "meta_arg_of_pericenter": 356.0397,
        "meta_mean_anomaly": 3.9637,
        "meta_ephemeris_type": 0,
        "meta_classification_type": "U",
        "meta_norad_cat_id": 30206,
        "meta_element_set_no": 999,
        "meta_rev_at_epoch": 99592,
        "meta_bstar": 0.00057343923,
        "meta_mean_motion_dot": 2.447e-05,
        "meta_mean_motion_ddot": 0,
        "tle_line1": "1 30206U 99025VP  25359.93008901  .00002447  00000+0  57344-3 0  9992",
        "tle_line2": "2 30206  98.2324 358.8759 0144984 356.0397   3.9637 14.49210523995922"
      },
      "geometry": {
        "type": "Point",
        "coordinates": [
          -4.833342656099368,
          26.010646131814227
        ]
      }
    },
    {
      "type": "Feature",
      "properties": {
        "norad_id": 30207,
        "name": "FENGYUN 1C DEB",
        "group": "fengyun-1c-debris",
        "lat": -8.342961735464993,
        "lon": -71.5505190332323,
        "alt_km": 921.3594596867424,
        "timestamp": "2025-12-26T06:43:29.786251+00:00",
        "meta_object_name": "FENGYUN 1C DEB",
        "meta_object_id": "1999-025VQ",
        "meta_epoch": "2025-12-24T19:38:12.861024",
        "meta_mean_motion": 13.79143535,
        "meta_eccentricity": 0.02607575,
        "meta_inclination": 98.574,
        "meta_ra_of_asc_node": 108.3922,
        "meta_arg_of_pericenter": 115.7859,
        "meta_mean_anomaly": 14.8814,
        "meta_ephemeris_type": 0,
        "meta_classification_type": "U",
        "meta_norad_cat_id": 30207,
        "meta_element_set_no": 999,
        "meta_rev_at_epoch": 95229,
        "meta_bstar": 0.00019176092,
        "meta_mean_motion_dot": 2.17e-06,
        "meta_mean_motion_ddot": 0,
        "tle_line1": "1 30207U 99025VQ  25358.81820441  .00000217  00000+0  19176-3 0  9994",
        "tle_line2": "2 30207  98.5740 108.3922 0260757 115.7859  14.8814 13.79143535952299"
      },
      "geometry": {
        "type": "Point",
        "coordinates": [
          -71.5505190332323,
          -8.342961735464993
        ]
      }
    }
  ]
}